[{"OBJECT_NAME":"EXPRESS-MD2","OBJECT_ID":"2012-044B","EPOCH":"2026-03-09T21:41:06.150624","MEAN_MOTION":12.36605018,"ECCENTRICITY":0.15990987,"INCLINATION":49.8419,"RA_OF_ASC_NODE":23.8539,"ARG_OF_PERICENTER":264.6071,"MEAN_ANOMALY":77.1068,"EPHEMERIS_TYPE":0,"CLASSIFICATION_TYPE":"U","NORAD_CAT_ID":38745,"ELEMENT_SET_NO":999,"REV_AT_EPOCH":54849,"BSTAR":0.00055780914,"MEAN_MOTION_DOT":0.00031331,"MEAN_MOTION_DDOT":4.210112e-6},{"OBJECT_NAME":"STARLINK-34257","OBJECT_ID":"2025-176AD","EPOCH":"2026-03-09T11:57:17.970624","MEAN_MOTION":15.30198763,"ECCENTRICITY":0.00011796,"INCLINATION":53.1593,"RA_OF_ASC_NODE":153.4332,"ARG_OF_PERICENTER":74.8777,"MEAN_ANOMALY":285.2354,"EPHEMERIS_TYPE":0,"CLASSIFICATION_TYPE":"U","NORAD_CAT_ID":65225,"ELEMENT_SET_NO":999,"REV_AT_EPOCH":3303,"BSTAR":0.0010192331,"MEAN_MOTION_DOT":0.00029948,"MEAN_MOTION_DDOT":0}]
